STARLINK-30497
1 58011U 23153W   26061.16668981  .01958525  00000+0  71419-1 0  9996
2 58011  43.0001 109.1383 0001921 252.5129 346.3085 15.24100622  5668
STARLINK-30801
1 58184U 23167K   26061.16668981  .01239699  00000+0  45771-1 0  9998
2 58184  43.0013 186.2480 0001310 276.3269 322.3178 15.24109723  5812
